satname,norad_id,inclination_deg,eccentricity,mean_motion_rev_per_day,perigee_km,apogee_km,l1,l2
STARLINK-1451,45668,53.0535,0.0003449,15.07467221,541.5551838753654,546.3300343897445,1 45668U 20035M   26021.98018220 -.00008282  00000+0 -52207-3 0  9990,2 45668  53.0535 276.5288 0003449 110.4308 249.7052 15.07467221311691
STARLINK-1452,45669,53.0346,0.0004467,15.36759349,452.647056176148,458.7524059116622,1 45669U 20035N   26022.30927352  .00017892  00000+0  50031-3 0  9991,2 45669  53.0346 241.3768 0004467 155.2938 204.8278 15.36759349312210
STARLINK-1453,45670,53.0514,0.000749,15.41825007,435.6158398095804,445.8304923383603,1 45670U 20035P   26022.01143107  .00059301  00000+0  13757-2 0  9993,2 45670  53.0514 236.4553 0007490 147.5775 212.5691 15.41825007312146
STARLINK-1454,45671,53.0537,0.000159,15.29789656,475.35067867015096,477.53043433311905,1 45671U 20035Q   26022.58337963  .01763198  00000+0  54225-1 0  9992,2 45671  53.0537 272.5779 0001590 105.8114 285.4318 15.29789656  5837
STARLINK-1456,45673,53.0529,0.0007199,15.39855364,441.62355531882076,451.44972042262725,1 45673U 20035S   26022.38015794  .00049691  00000+0  12336-2 0  9999,2 45673  53.0529 267.0200 0007199 124.6546 235.5137 15.39855364311866
STARLINK-1457,45674,53.05,0.0001354,15.63356056,377.0560839719865,378.8856379807394,1 45674U 20035T   26022.05216552  .00086156  00000+0  91501-3 0  9998,2 45674  53.0500 253.5453 0001354 103.1377 256.9788 15.63356056311991
STARLINK-1458,45675,53.0535,0.0001882,15.2201693,498.4632264482361,501.0520659930726,1 45675U 20035U   26022.58337963  .01412761  00000+0  56024-1 0  9992,2 45675  53.0535 272.8572 0001882 108.1233  77.3568 15.22016930  5730
STARLINK-1460,45676,53.0536,0.000128,15.06379896,546.3867219857011,548.1596269903694,1 45676U 20035V   26022.39114201  .00000239  00000+0  34931-4 0  9998,2 45676  53.0536 274.4583 0001280  87.7382 272.3753 15.06379896311717
STARLINK-1392,45677,53.0527,0.000154,15.06383156,546.1966712251806,548.3296944814983,1 45677U 20035W   26022.40219951  .00004993  00000+0  35401-3 0  9992,2 45677  53.0527 274.4108 0001540  97.4475 262.6689 15.06383156311759
STARLINK-1394,45679,53.0522,0.0006325,15.40480083,440.37597694111537,449.00685488724775,1 45679U 20035Y   26022.35223049  .00018473  00000+0  45739-3 0  9994,2 45679  53.0522 257.1044 0006325 125.0196 235.1402 15.40480083311996
STARLINK-1402,45685,53.0509,0.0010985,15.36848098,447.92995694819456,462.9433182299772,1 45685U 20035AE  26022.02550812  .00034559  00000+0  95023-3 0  9990,2 45685  53.0509 244.3179 0010985 107.1439 253.0767 15.36848098312154
STARLINK-1404,45686,53.0955,0.0001999,15.16175768,516.0329158341565,518.7897560588681,1 45686U 20035AF  26022.58337963  .01462877  00000+0  68415-1 0  9994,2 45686  53.0955 263.4260 0001999 113.0836 121.5007 15.16175768  5830
STARLINK-1413,45689,53.0998,0.0001474,15.1700947,513.8686847958024,515.9007475977369,1 45689U 20035AJ  26022.58337963  .00982735  00000+0  45174-1 0  9993,2 45689  53.0998 263.3897 0001474 103.3695  49.1728 15.17009470  5795
STARLINK-1417,45693,53.0516,0.0007527,15.09739173,531.7913201339006,542.2013618654428,1 45693U 20035AN  26022.36677082  .00005278  00000+0  34105-3 0  9995,2 45693  53.0516 263.8010 0007527 101.1329 259.0508 15.09739173311893
STARLINK-1420,45695,53.0582,0.0001111,15.28928933,478.25104602629017,479.7747047286002,1 45695U 20035AQ  26022.58337963  .01073230  00000+0  34464-1 0  9992,2 45695  53.0582 242.6460 0001111  99.3320  80.7335 15.28928933  5537
STARLINK-1422,45696,53.1024,0.0002297,15.18001964,510.29723981659754,513.4625135697506,1 45696U 20035AR  26022.58337963  .00120503  00000+0  57728-2 0  9997,2 45696  53.1024 263.1881 0002297 106.2207 118.7316 15.18001964  5821
STARLINK-1351,45697,53.0544,0.0002618,15.29933067,474.21778286134395,477.80661538200457,1 45697U 20035AS  26022.58337963  .01612292  00000+0  49829-1 0  9992,2 45697  53.0544 241.6634 0002618 111.5761 294.9944 15.29933067  5842
STARLINK-1398,45699,53.0427,0.0003344,15.72322036,350.0118073342355,354.5130984883426,1 45699U 20035AU  26022.58337963  .00041546  00000+0  31021-3 0  9998,2 45699  53.0427 171.4752 0003344 213.2626  30.3317 15.72322036  6003
STARLINK-1400,45700,53.0563,0.0001271,15.29414419,476.69031733677184,478.4330359403739,1 45700U 20035AV  26022.58337963  .01082014  00000+0  34209-1 0  9996,2 45700  53.0563 242.6066 0001271 101.8341 315.5249 15.29414419  5795
STARLINK-1403,45701,53.0555,0.0001413,15.0638672,546.2737020222467,548.2308170269871,1 45701U 20035AW  26022.03267419 -.00002537  00000+0 -15154-3 0  9998,2 45701  53.0555 246.0697 0001413  84.9855 275.1295 15.06386720312111
STARLINK-1407,45703,53.0379,0.0006796,15.51312525,408.27770723065623,417.50807505870034,1 45703U 20035AY  26022.44233433  .00036261  00000+0  61162-3 0  9993,2 45703  53.0379 179.6410 0006796 299.8207  60.2125 15.51312525313093
STARLINK-1411,45706,53.0465,0.0001105,15.53870722,404.6877040967056,406.18687401458646,1 45706U 20035BB  26022.50001155  .00072887  00000+0  11099-2 0  9994,2 45706  53.0465 205.6967 0001105 208.8857 151.2091 15.53870722312721
STARLINK-1423,45710,53.0553,0.0001263,15.32091916,468.70709743132556,470.4368287153984,1 45710U 20035BF  26022.58337963  .01768950  00000+0  50653-1 0  9998,2 45710  53.0553 242.3218 0001263  72.8195 193.0787 15.32091916  5834
STARLINK-1433,45711,53.0542,0.0001552,15.33556049,464.15070283425484,466.2748786092943,1 45711U 20035BG  26022.58337963  .01813415  00000+0  49476-1 0  9997,2 45711  53.0542 242.0929 0001552 114.5127   7.9272 15.33556049  5688
STARLINK-1434,45712,53.053,0.0004579,15.21333656,498.6665326477323,504.9671943959456,1 45712U 20035BH  26022.27498551  .00025673  00000+0  11424-2 0  9998,2 45712  53.0530 234.1923 0004579  87.4449 272.7070 15.21333656312312
STARLINK-1465,45731,53.0591,0.0001307,15.25301514,488.98254452173387,490.7778442163417,1 45731U 20038B   26022.58337963  .00355692  00000+0  13294-1 0  9998,2 45731  53.0591  82.4889 0001307  60.9134  39.0859 15.25301514  5734
STARLINK-1471,45735,53.0508,0.0003029,15.451004,429.0205698252894,433.1455953513214,1 45735U 20038F   26022.26625862  .00027642  00000+0  58180-3 0  9991,2 45735  53.0508   3.8592 0003029  81.2272 278.9077 15.45100400310341
STARLINK-1474,45738,53.0278,0.0005617,15.89365783,300.306511577719,307.8132915769511,1 45738U 20038J   26022.58337963  .00309111  00000+0  10061-2 0  9990,2 45738  53.0278 299.3895 0005617 143.3261 212.0616 15.89365783  6052
STARLINK-1480,45741,53.0532,0.0006439,15.39792482,442.32791349296804,451.11696748042687,1 45741U 20038M   26022.45889876  .00017964  00000+0  45522-3 0  9998,2 45741  53.0532  77.1898 0006439  19.8608 340.2645 15.39792482309337
STARLINK-1500,45744,53.0385,0.0003784,15.32070844,467.04355471960844,472.2259483811813,1 45744U 20038Q   26022.46789686  .00027012  00000+0  86881-3 0  9998,2 45744  53.0385  49.1245 0003784  81.8597 278.2832 15.32070844309722
STARLINK-1504,45746,53.0255,0.0004252,15.49853638,414.26449133822734,420.04320667622324,1 45746U 20038S   26022.17847958  .00033865  00000+0  60247-3 0  9996,2 45746  53.0255   6.0164 0004252  60.5140 299.6291 15.49853638310299
STARLINK-1506,45747,53.0779,0.0004637,15.2458748,488.83873740321724,495.21012511456684,1 45747U 20038T   26022.47013407  .00034239  00000+0  13781-2 0  9990,2 45747  53.0779  55.9137 0004637  89.7872 270.3657 15.24587480309636
STARLINK-1464,45751,53.0539,0.0001431,15.25547189,488.16011386531136,490.1255293502554,1 45751U 20038X   26022.58337963  .01731348  00000+0  61626-1 0  9999,2 45751  53.0539  62.6525 0001431  86.8120  17.7527 15.25547189  5820
STARLINK-1477,45754,53.0517,0.0001403,15.11312754,531.2259568540749,533.1649961469802,1 45754U 20038AA  26022.39043031  .00007136  00000+0  43571-3 0  9992,2 45754  53.0517  62.9273 0001403 241.7973 118.2877 15.11312754309521
STARLINK-1478,45755,53.0545,0.0001764,15.44844173,430.63469819450165,433.0372566609376,1 45755U 20038AB  26022.47467848  .00022490  00000+0  47951-3 0  9994,2 45755  53.0545  59.7249 0001764  69.1636 290.9558 15.44844173309567
STARLINK-1484,45756,53.0082,0.0004657,15.79408252,328.9912089484642,335.241138754589,1 45756U 20038AC  26022.58337963  .00184616  00000+0  98196-3 0  9997,2 45756  53.0082 291.2528 0004657 127.9414 106.7092 15.79408252  6033
STARLINK-1493,45759,53.0545,0.0001508,15.1962122,505.9462210378924,508.0227736814959,1 45759U 20038AF  26022.58337963  .01069331  00000+0  45903-1 0  9993,2 45759  53.0545  62.9653 0001508  84.6836 100.3363 15.19621220  5835
STARLINK-1494,45760,53.0523,0.0001566,15.65424464,370.96120868826983,373.0753573229067,1 45760U 20038AG  26022.26291960  .00075028  00000+0  73599-3 0  9999,2 45760  53.0523  20.9464 0001566  86.9184 273.2010 15.65424464310102
STARLINK-1502,45764,53.0545,0.0001185,15.16481052,515.6688598904939,517.3028855113234,1 45764U 20038AL  26022.58337963  .00120278  00000+0  60183-2 0  9994,2 45764  53.0545  63.2056 0001185  88.8749 153.5363 15.16481052  5836
STARLINK-1470,45772,53.0451,6.8e-05,15.23864351,493.7303681131716,494.66500563058526,1 45772U 20038AU  26022.30088058  .00011413  00000+0  48002-3 0  9998,2 45772  53.0451  28.9316 0000680 170.7639 189.3370 15.23864351309990
STARLINK-1482,45773,53.0542,0.0001194,15.06381103,546.442581593933,548.0963686601926,1 45773U 20038AV  26022.47499924  .00008300  00000+0  57573-3 0  9999,2 45773  53.0542  44.0826 0001194  90.8324 269.2802 15.06381103309797
STARLINK-1496,45780,53.0556,0.0005361,15.3933806,444.406007367591,451.72506172513204,1 45780U 20038BC  26022.22842744  .00019586  00000+0  50279-3 0  9996,2 45780  53.0556  38.7143 0005361  39.8738 320.2658 15.39338060309836
STARLINK-1497,45781,53.0302,0.0008343,15.9071279,294.7152609485256,305.8588793519775,1 45781U 20038BD  26022.58337963  .00306547  45958-4  97128-3 0  9994,2 45781  53.0302 311.7224 0008343 113.3688 320.2237 15.90712790  5991
